GLOBALSTAR M063         
1 26081U 00008A   25069.33906869 -.00000074  00000+0  12163-3 0  9998
2 26081  51.9988  11.9014 0004929 121.4174  51.1218 11.86166747145846
GLOBALSTAR M062         
1 26082U 00008B   25069.43403073 -.00000051  00000+0  33991-3 0  9996
2 26082  51.9872  26.1829 0006638 262.2345 251.9696 12.43460166484330
GLOBALSTAR M060         
1 26083U 00008C   25069.24398307 -.00000147  00000+0 -55573-3 0  9996
2 26083  52.0047 332.7555 0002778 291.4249 187.0929 12.17656471140319
GLOBALSTAR M064         
1 26084U 00008D   25069.41059058 -.00000041  00000+0  60118-3 0  9996
2 26084  52.0015 111.7059 0001606 212.1337 147.9398 11.88530762155352
GLOBALSTAR M065         
1 31571U 07020A   25069.54508106  .00000035  00000+0  77744-3 0  9996
2 31571  51.9887 166.5034 0010823  90.8925 344.4952 12.61998332820958
GLOBALSTAR M069         
1 31573U 07020C   25069.57404429 -.00000078  00000+0  14195-3 0  9993
2 31573  51.9936 131.9763 0000297 138.4548   7.2139 12.42142154821914
GLOBALSTAR M072         
1 31574U 07020D   25069.53075187 -.00000093  00000+0 -12411-3 0  9992
2 31574  52.0134 254.6000 0001981 124.0816 269.5550 11.91776842819708
GLOBALSTAR M071         
1 31576U 07020F   25069.60936520 -.00000049  00000+0  41333-3 0  9994
2 31576  52.0051 147.0564 0000581 214.4503 290.0713 12.18250202482927
